OBJECTID,ZIP,NAME,ZIPTYPE,STATE,STATEFIPS,COUNTYFIPS,COUNTYNAME,S3DZIP,LAT,LON,EMPTYCOL,TOTRESCNT,MFDU,SFDU,BOXCNT,BIZCNT,RELVER,COLOR,GlobalID,SHAPESTArea,SHAPESTLength
4,15007,BAKERSTOWN,NON-UNIQUE,PA,42,42003,ALLEGHENY,150,40.65668829,-79.93212966, ,173,0,107,66,55,1.9.3,10,{4768B869-6BC2-4B77-8DC7-A3BB678888D1},13371212.1917725,20129.3081236352
5,15014,BRACKENRIDGE,NON-UNIQUE,PA,42,42003,ALLEGHENY,150,40.60796437,-79.74083155, ,1493,59,1396,38,76,1.9.3,5,{D7938129-8427-49A4-8C6C-3A19848432D4},15152763.5545044,16847.4235175309
6,15015,BRADFORD WOODS,NON-UNIQUE,PA,42,42003,ALLEGHENY,150,40.6364525,-80.08523523, ,525,0,430,95,56,1.9.3,10,{BABB5D5E-1FF4-4E03-BBAB-B84CBB5BFB31},26583860.623291,34637.6593476434
8,15018,BUENA VISTA,NON-UNIQUE,PA,42,42003,ALLEGHENY,150,40.28940773,-79.79123687, ,415,0,286,129,22,1.9.3,11,{4E2C2FAA-7976-4BEF-8119-BBB65C2F7014},60877730.8699646,76466.4687362405
10,15020,BUNOLA,PO BOX,PA,42,42003,ALLEGHENY,150,40.21979141,-79.96302413, ,131,0,1,130,13,1.9.3,12,{6A1DF0B9-0732-465E-A020-6DBC3DCE93B3},53737115.2289124,51181.4570728443
12,15025,CLAIRTON,NON-UNIQUE,PA,42,42003,ALLEGHENY,150,40.28416284,-79.91537341, ,7218,277,6768,173,494,1.9.3,0,{86730D4E-BBA9-4B57-8336-A444594F7E27},455990446.283508,178267.358010406
14,15034,DRAVOSBURG,NON-UNIQUE,PA,42,42003,ALLEGHENY,150,,, ,979,0,950,29,104,1.9.3,6,{C7A863B3-22E1-42B1-A368-872E83B4A9CC},29885395.682312,27557.1871821006
15,15030,CREIGHTON,NON-UNIQUE,PA,42,42003,ALLEGHENY,150,40.58806677,-79.77999562, ,532,1,491,40,64,1.9.3,0,{5E20E33C-05C8-49F4-A63F-B29340E9BC6E},46031782.0288086,61125.2059714738
19,15035,EAST MC KEESPORT,NON-UNIQUE,PA,42,42003,ALLEGHENY,150,40.39846801,-79.81833267, ,1141,51,1062,28,70,1.9.3,10,{5727D3B9-700D-43F7-B621-1FFACDA2A5B9},11959237.5730286,18567.5465161071
23,15046,CRESCENT,NON-UNIQUE,PA,42,42003,ALLEGHENY,150,40.55563839,-80.22832411, ,1116,0,1060,56,63,1.9.3,0,{14AA359E-C043-4826-B9E7-450800598D51},63556112.9818726,37940.4317018874
24,15047,GREENOCK,PO BOX,PA,42,42003,ALLEGHENY,150,40.31121933,-79.79640995, ,163,0,1,162,16,1.9.3,15,{E03C7DC0-2C30-465D-90E9-82C16CA52037},7915903.93862915,19825.3551936427
25,15049,HARWICK,NON-UNIQUE,PA,42,42003,ALLEGHENY,150,40.55594268,-79.80560481, ,546,0,463,83,23,1.9.3,15,{CEC8C572-1900-45CE-88AF-EC3E199852EF},18921596.347229,26044.3527021944
30,15064,MORGAN,NON-UNIQUE,PA,42,42003,ALLEGHENY,150,40.3570462,-80.14755828, ,197,0,160,37,54,1.9.3,12,{1FA645FE-C42C-4C6F-A8F7-575717E417F3},16646642.1828003,35948.4838128964
31,15065,NATRONA HEIGHTS,NON-UNIQUE,PA,42,42003,ALLEGHENY,150,40.64174598,-79.72652033, ,5339,309,4928,102,399,1.9.3,10,{99206AD3-D38B-4853-BBEA-632419299957},351427878.232117,107844.968143717
38,15082,STURGEON,PO BOX,PA,42,42003,ALLEGHENY,150,40.38088936,-80.21310333, ,175,0,1,174,15,1.9.3,0,{68837542-C476-4E60-86D8-F67AD536E4E0},5299054.06674194,17954.8295494306
49,15110,DUQUESNE,NON-UNIQUE,PA,42,42003,ALLEGHENY,151,40.37243097,-79.85005849, ,2833,318,2383,132,169,1.9.3,6,{0572D3C0-9701-472C-B109-0FB3F73FC8EA},56202860.6950989,33878.6546408416
50,15112,EAST PITTSBURGH,NON-UNIQUE,PA,42,42003,ALLEGHENY,151,40.406067,-79.83876378, ,1830,154,1595,81,141,1.9.3,12,{5B39C659-1E8C-4F25-AAA4-DCE9E7E6C0B6},22348819.9750366,30176.0539118328
55,15129,SOUTH PARK,NON-UNIQUE,PA,42,42003,ALLEGHENY,151,40.29378767,-79.9950397, ,4690,836,3674,180,183,1.9.3,16,{5F1C6CBE-D261-464A-9F1D-673D4D5F1533},225136962.630127,94812.0902438453
56,15131,MCKEESPORT,NON-UNIQUE,PA,42,42003,ALLEGHENY,151,40.32513782,-79.80337403, ,3997,557,3440,0,286,1.9.3,8,{FA436401-5594-4ACC-9EDF-7B2AC0984C11},193951144.079529,103869.891585818
57,15132,MCKEESPORT,NON-UNIQUE,PA,42,42003,ALLEGHENY,151,40.3392329,-79.84240455, ,9746,1144,8558,44,722,1.9.3,0,{0AD7F458-B319-4527-B1DB-235637FB63F6},175028817.716278,89731.7209160281
58,15133,MCKEESPORT,NON-UNIQUE,PA,42,42003,ALLEGHENY,151,40.32924545,-79.86396125, ,2949,121,2828,0,62,1.9.3,1,{D38FA47F-3240-46A4-9096-2A896FB4B4A6},81852607.5224304,52486.291160646
59,15135,MCKEESPORT,NON-UNIQUE,PA,42,42003,ALLEGHENY,151,40.30216627,-79.81469332, ,2192,280,1879,33,93,1.9.3,5,{760085A3-2A1B-44A4-9858-AEA6311684E9},108813901.793793,78848.1116707703
61,15137,NORTH VERSAILLES,NON-UNIQUE,PA,42,42003,ALLEGHENY,151,40.3780742,-79.80876604, ,5010,788,4114,108,384,1.9.3,15,{357A761E-C584-47FB-854E-E8C91C75BE69},221192734.997955,109744.846792781
66,15144,SPRINGDALE,NON-UNIQUE,PA,42,42003,ALLEGHENY,151,40.54658212,-79.78534981, ,1976,159,1789,28,143,1.9.3,10,{17187878-280E-4EB3-A513-BC21F819466A},71499154.5735474,58871.5350615758
68,15146,MONROEVILLE,NON-UNIQUE,PA,42,42003,ALLEGHENY,151,40.42693174,-79.759102, ,13159,3114,9836,209,1837,1.9.3,16,{A5AE5829-C414-4AD3-B19D-E04B1FE08F92},538235809.989441,154219.345030184
70,15148,WILMERDING,NON-UNIQUE,PA,42,42003,ALLEGHENY,151,40.39963912,-79.81058502, ,1416,216,1166,34,109,1.9.3,5,{17E6865C-36C0-4B7C-9809-3D8720059F19},38116626.4832764,47791.7813101314
73,15203,PITTSBURGH,NON-UNIQUE,PA,42,42003,ALLEGHENY,152,40.42585758,-79.97513245, ,5709,733,4799,177,888,1.9.3,12,{9B363D48-EAE2-4F39-AD8F-22506F5C60AA},48176953.1625366,47082.4331882262
81,15211,PITTSBURGH,NON-UNIQUE,PA,42,42003,ALLEGHENY,152,40.43077203,-80.0151459, ,5893,901,4922,70,206,1.9.3,10,{4947BA7C-BC90-4825-B540-DA3311566C49},43394972.3510132,35501.9104320557
83,15213,PITTSBURGH,NON-UNIQUE,PA,42,42003,ALLEGHENY,152,40.4430908,-79.95520627, ,11666,6940,4487,239,947,1.9.3,6,{EAF54ABC-E455-4BCB-B221-D579E1242754},76313243.3368225,62979.836102044
84,15214,PITTSBURGH,NON-UNIQUE,PA,42,42003,ALLEGHENY,152,40.48571112,-80.01328973, ,6370,417,5953,0,111,1.9.3,6,{CFA66008-DB78-4DCA-931B-F3E4A54D4D7D},119695616.789795,90983.8858793446
88,15218,PITTSBURGH,NON-UNIQUE,PA,42,42003,ALLEGHENY,152,40.42616848,-79.88669761, ,7238,1229,5858,151,441,1.9.3,0,{115FC638-65FB-4864-8E27-CC6756C47CD2},69162517.6314087,47873.5157166596
94,15224,PITTSBURGH,NON-UNIQUE,PA,42,42003,ALLEGHENY,152,40.46426325,-79.94511825, ,5113,845,4063,205,495,1.9.3,0,{38CD0F50-BE92-4378-A4FA-018342B795B0},27720746.4512329,34234.0303153359
95,15225,PITTSBURGH,NON-UNIQUE,PA,42,42003,ALLEGHENY,152,40.50688702,-80.11220909, ,603,0,578,25,150,1.9.3,16,{73BB6FA5-B8CB-40D8-A292-C8AC931AEFC8},65384475.5302734,58702.9992217382
100,15232,PITTSBURGH,NON-UNIQUE,PA,42,42003,ALLEGHENY,152,40.45294179,-79.93224793, ,6796,4113,2604,79,441,1.9.3,5,{14540988-6754-4A8C-A748-6CB303426CC4},23034380.8631592,38951.1369447947
107,15239,PITTSBURGH,NON-UNIQUE,PA,42,42003,ALLEGHENY,152,40.48743511,-79.73946234, ,8522,164,8256,102,532,1.9.3,6,{F85E598B-BC93-40B3-9C95-192AC8A5F4EC},477113225.684692,144931.793592007
111,15261,PITTSBURGH,UNIQUE,PA,42,42003,ALLEGHENY,152,40.44655133,-79.95955977, ,0,0,0,0,0,1.9.3,5,{29ADE7CC-CBDF-49B0-B6C1-EB1045BE6051},324741.463439941,2970.28234777327
112,15275,PITTSBURGH,NON-UNIQUE,PA,42,42003,ALLEGHENY,152,40.45235707,-80.18180181, ,0,0,0,0,181,1.9.3,13,{6879EEB7-CBC2-4D52-B5D9-A5D5A8CEB5BF},37386801.1525269,58049.2379486239
113,15290,PITTSBURGH,NON-UNIQUE,PA,42,42003,ALLEGHENY,152,40.45866861,-80.02204336, ,0,0,0,0,1,1.9.3,10,{930CCE98-4F12-478B-A825-6D529F798805},943404.942993164,4925.95612909326
125,15126,IMPERIAL,NON-UNIQUE,PA,42,42003,ALLEGHENY,151,40.4070605,-80.17620598, ,3084,294,2663,127,235,1.9.3,15,{3D342C71-3E56-4E55-BA26-26F7B6C25CF4},652794887.424286,213504.478684104
154,15006,BAIRDFORD,PO BOX,PA,42,42003,ALLEGHENY,150,40.63632608,-79.9466552, ,,,,,,1.9.3,12,{E34895F1-D822-4D51-ADD7-5A6EFD3CA15D},3706481.42407227,16964.4999485231
183,15051,INDIANOLA,NON-UNIQUE,PA,42,42003,ALLEGHENY,150,40.57959175,-79.86609649, ,243,0,201,42,45,1.9.3,10,{1A3867AA-9625-453F-83EA-73EBDFCB5927},12060159.0457153,18828.5182263709
216,15223,PITTSBURGH,NON-UNIQUE,PA,42,42003,ALLEGHENY,152,40.50611141,-79.95117001, ,3532,232,3272,28,283,1.9.3,12,{BF739C67-EFAE-4BAA-8CC3-BFC29FAEAE55},57907627.5751343,57572.6827419749
237,15227,PITTSBURGH,NON-UNIQUE,PA,42,42003,ALLEGHENY,152,40.381338,-79.969707, ,13011,1522,11412,77,622,1.9.3,16,{E0E4D041-A766-4D78-8127-DFFBD17309A8},167876282.381104,127539.2683407
243,15229,PITTSBURGH,NON-UNIQUE,PA,42,42003,ALLEGHENY,152,40.517189,-80.030806, ,6411,665,5672,74,312,1.9.3,5,{65541C6E-E28D-4150-B563-93F955826F42},116544636.900574,91251.4848810695
255,16229,FREEPORT,NON-UNIQUE,PA,42,42003,ALLEGHENY,150,40.64174598,-79.72652033, ,,,,,,1.9.3,10,{9854CE82-59CB-4E16-A63F-D64920BD5EA6},2958958.862854,9228.62616137391
256,15282,PITTSBURGH,NON-UNIQUE,PA,42,42003,ALLEGHENY,152,40.44291632,-79.98815211, ,,,,,,1.9.3,11,{90C0B91D-1527-4729-AFEE-C388E634A907},268656.100097656,2301.32381191186
257,15276,PITTSBURGH,NON-UNIQUE,PA,42,42003,ALLEGHENY,151,40.551918,-79.939899, ,,,,,,1.9.3,5,{9374F636-799D-4638-94BE-24CF19D4CC1A},3569755.206604,9468.9434971093
258,15083,SUTERSVILLE,NON-UNIQUE,PA,42,42003,ALLEGHENY,150,40.28940773,-79.79123687, ,,,,,,1.9.3,11,{BB0BB666-A223-45A9-8674-A950C0F5983C},7938963.44207764,19272.491630008
268,15088,WEST ELIZABETH,NON-UNIQUE,PA,42,42003,ALLEGHENY,150,40.25059259,-79.86374335, ,,,,,,1.9.3,10,{3F6DAE87-C96B-403D-B589-CB7F3696195C},8432856.04052734,23978.2382693005
277,15116,GLENSHAW,NON-UNIQUE,PA,42,42003,ALLEGHENY,151,40.551918,-79.939899, ,6093,86,5931,76,374,1.9.3,5,{993779CB-C9F6-4CDC-AA88-A7C006E9E836},217441574.282593,126302.990057622
287,15237,PITTSBURGH,NON-UNIQUE,PA,42,42003,ALLEGHENY,152,40.54828572,-80.05271256, ,18376,2952,15125,299,1880,1.9.3,12,{4B1C99A3-857A-4BCB-A79B-9E02F30DF27D},666544579.883728,240389.679905622
296,15122,WEST MIFFLIN,NON-UNIQUE,PA,42,42003,ALLEGHENY,151,40.36062103,-79.90927201, ,9167,631,8491,45,472,1.9.3,5,{DF2BE71D-F1BC-4056-90F7-C0698B4FDA01},361520617.038025,163467.568734699
298,15204,PITTSBURGH,NON-UNIQUE,PA,42,42003,ALLEGHENY,152,40.45436768,-80.05936821, ,3645,112,3484,49,139,1.9.3,10,{478BB633-2446-4D0B-AA3F-EFBEF91D5202},55186568.3005981,39471.0581551696
302,15216,PITTSBURGH,NON-UNIQUE,PA,42,42003,ALLEGHENY,152,40.40180177,-80.03433406, ,11008,1817,9054,137,535,1.9.3,6,{3138C4F5-5CEE-43E0-8933-0F0E7AA1EEBA},95351928.2561951,80277.153029713
307,15102,BETHEL PARK,NON-UNIQUE,PA,42,42003,ALLEGHENY,151,40.32221149,-80.03642213, ,12769,1668,10948,153,861,1.9.3,6,{2EB816EA-46E9-4C7B-886A-99FA183C4EC3},294828949.508972,97973.7884785724
309,15234,PITTSBURGH,NON-UNIQUE,PA,42,42003,ALLEGHENY,152,40.36961247,-80.01796048, ,6819,1034,5562,223,722,1.9.3,5,{417599F8-E171-4B7C-9BED-1E224FA43843},93964637.9895325,86983.585235707
313,15120,HOMESTEAD,NON-UNIQUE,PA,42,42003,ALLEGHENY,151,40.39606444,-79.90626658, ,9303,1035,8024,244,651,1.9.3,6,{333855ED-238E-4219-BF3A-1B03E620B6BE},139153748.094086,60034.8194220884
336,15017,BRIDGEVILLE,NON-UNIQUE,PA,42,42003,ALLEGHENY,150,40.34316582,-80.13009131, ,7437,1216,6065,156,865,1.9.3,6,{C8461EEC-98FC-41AC-BFF6-4877D311C01A},291769883.206238,124095.098771136
345,15205,PITTSBURGH,NON-UNIQUE,PA,42,42003,ALLEGHENY,152,40.43935,-80.10208, ,10831,1718,8997,116,1222,1.9.3,11,{2EAC90A8-3F81-41A7-8F43-3E791D265145},385064044.888855,236330.421615258
370,15215,PITTSBURGH,NON-UNIQUE,PA,42,42003,ALLEGHENY,152,40.49616648,-79.91664792, ,5617,544,5014,59,486,1.9.3,7,{B4B258BE-AD4C-428E-B5F6-BF42D3C37FF9},167883075.335022,69602.2986281859
376,15139,OAKMONT,NON-UNIQUE,PA,42,42003,ALLEGHENY,151,40.53502586,-79.88243085, ,3161,465,2616,80,379,1.9.3,6,{7921DED5-1C74-4B9A-BCE0-3911444F9916},79554518.8250732,45520.3208487122
460,15028,COULTERS,PO BOX,PA,42,42003,ALLEGHENY,150,40.295303,-79.801633,,87,,1,86,3,1.9.3,6,{C6C99F73-FF1E-4BF8-B844-F3B6496E9EF9},8293716.10830688,15909.8766841774
527,15145,TURTLE CREEK,NON-UNIQUE,PA,42,42003,ALLEGHENY,151,40.41645483,-79.82407788, ,3559,307,3164,88,236,1.9.3,17,{E2ED0CB5-5DDA-4EF4-AE3F-BA6BF6002261},57233133.0415344,66837.288550448
591,15221,PITTSBURGH,NON-UNIQUE,PA,42,42003,ALLEGHENY,152,40.43174313,-79.86487858, ,16040,3486,12256,298,826,1.9.3,11,{F2103F22-0665-4BA1-B7D8-9BD97F00CD1F},166230305.150635,94458.8496628746
592,15104,BRADDOCK,NON-UNIQUE,PA,42,42003,ALLEGHENY,151,40.4017865,-79.85603257, ,4136,427,3564,145,254,1.9.3,10,{6FCB909B-8979-4323-8B89-4A7AD707C3BF},79297702.0961609,45881.6403562428
678,15086,WARRENDALE,NON-UNIQUE,PA,42,42003,ALLEGHENY,150,40.64717864,-80.0953598, ,157,0,93,64,229,1.9.3,10,{96EBB7AC-2CE6-404C-97A8-EBC16ADD2540},60175254.6088867,67641.1370637554
853,15142,PRESTO,NON-UNIQUE,PA,42,42003,ALLEGHENY,151,40.38040138,-80.12099328, ,1037,0,919,118,30,1.9.3,5,{50A22C3C-87AF-4B8F-89F4-05FD32B80F25},55528134.7839661,56051.204167006
858,16056,SAXONBURG,NON-UNIQUE,PA,42,42019,BUTLER,160,40.72386263,-79.83905753, ,2291,249,1700,342,201,1.9.3,7,{C3794FFA-46DD-4A2F-A8FF-46BC033ED71B},3888956.73175049,10318.311048047
859,15068,NEW KENSINGTON,NON-UNIQUE,PA,42,42129,WESTMORELAND,150,40.55494408,-79.70895869, ,17680,1375,15906,399,1146,1.9.3,12,{EEFF2771-2F98-48DE-9CAC-49F84B3E8679},265879350.951721,106251.097631637
860,15005,BADEN,NON-UNIQUE,PA,42,42007,BEAVER,150,40.64337237,-80.16605706, ,4086,243,3793,50,176,1.9.3,12,{21A801BB-C8D9-4EE7-838E-52470EAEBC48},107498245.74292,63901.6079537902
863,15003,AMBRIDGE,NON-UNIQUE,PA,42,42007,BEAVER,150,40.60947689,-80.22024162, ,5481,211,5085,185,474,1.9.3,11,{B563A649-C6D4-4D39-881B-5EF1F87C1A72},11432082.1054077,28089.9124701156
882,15668,MURRYSVILLE,NON-UNIQUE,PA,42,42129,WESTMORELAND,156,40.46510414,-79.66682253, ,5479,176,5150,153,580,1.9.3,11,{9F5E022A-36CD-4B19-9299-55001E2AD4DA},3252369.97033691,11175.0481945926
883,15642,IRWIN,NON-UNIQUE,PA,42,42129,WESTMORELAND,156,40.30204562,-79.70319636, ,18756,870,17657,229,1111,1.9.3,7,{94796352-FF04-4F83-8620-FCD7904D7C43},3872925.96917725,10500.6322762761
884,15085,TRAFFORD,NON-UNIQUE,PA,42,42129,WESTMORELAND,150,40.38481212,-79.71904635, ,3452,104,3305,43,189,1.9.3,5,{1EAD1C8E-705B-4221-B6BB-D28A573375AB},13689035.6250305,23206.9563610462
886,15089,WEST NEWTON,NON-UNIQUE,PA,42,42129,WESTMORELAND,150,40.21590808,-79.74185899, ,2881,139,2681,61,177,1.9.3,13,{17006982-B31E-4199-B529-CF78EB4BC0C1},9619485.51199341,16137.6527964695
893,15026,CLINTON,NON-UNIQUE,PA,42,42007,BEAVER,150,40.51234159,-80.37390453, ,1457,0,1205,252,90,1.9.3,0,{060219CD-1215-491C-ADD3-15E31994CA1A},145858211.155884,96048.2919407515
900,15321,CECIL,NON-UNIQUE,PA,42,42125,WASHINGTON,153,40.32301892,-80.18939955, ,796,0,658,138,74,1.9.3,10,{E0DC3A5E-59AC-4686-BD65-AB36B2F6AF97},2109616.54034424,6243.76661165495
903,15241,PITTSBURGH,NON-UNIQUE,PA,42,42003,ALLEGHENY,152,40.33186282,-80.0828404, ,7820,658,7027,135,888,1.9.3,15,{AEE5E07F-EF87-4E93-90E0-F7E81B93CA30},278545662.019379,105695.827726236
905,15332,FINLEYVILLE,NON-UNIQUE,PA,42,42125,WASHINGTON,153,40.23664564,-79.98846347, ,3572,106,3403,63,164,1.9.3,5,{B42E936B-EC34-4D0B-A442-5BAA8E985422},96437017.3342285,68925.2136311093
908,15063,MONONGAHELA,NON-UNIQUE,PA,42,42125,WASHINGTON,150,40.20063939,-79.92817274, ,5130,157,4851,122,339,1.9.3,11,{00DD3ADA-FF13-44A8-910C-B7C4BAA97BD8},351926770.326294,124744.775933673
2116,15226,PITTSBURGH,NON-UNIQUE,PA,42,42003,ALLEGHENY,152,40.39597226,-80.01427671, ,6578,603,5908,67,367,1.9.3,11,{09780AB6-B857-4B38-A56A-D6D3581ABFD2},70930739.3934021,55670.4614800607
3732,15207,PITTSBURGH,NON-UNIQUE,PA,42,42003,ALLEGHENY,151,40.398646,-79.933936, ,5309,344,4885,80,221,1.9.3,5,{1224E878-50CE-407F-B26C-8C0345828818},138550498.007172,123997.602093062
4109,15012,BELLE VERNON,NON-UNIQUE,PA,42,42129,WESTMORELAND,150,40.15614,-79.812132,,7110,180,6786,144,651,1.9.3,10,{5622E8D7-42F6-4954-BCA1-027E79E94D85},3767708.23635864,8742.80348462524
4509,15075,RURAL RIDGE,PO BOX,PA,42,42003,ALLEGHENY,150,40.63261124,-79.83747527, ,90,0,1,89,14,1.9.3,5,{C905BDB3-EC1C-4CA0-9E61-2829DF059A4B},1766234.96868896,10219.522126884
8113,15076,RUSSELLTON,NON-UNIQUE,PA,42,42003,ALLEGHENY,150,40.6109096,-79.83650823, ,518,40,344,134,78,1.9.3,15,{E1D40D22-317D-4798-BC57-51EA3506E64D},33472845.4471436,50382.0659747641
26920,15209,PITTSBURGH,NON-UNIQUE,PA,42,42003,ALLEGHENY,152,40.50084865,-79.97402649, ,5733,318,5354,61,344,1.9.3,10,{FF8622D8-3B88-4340-934B-43462715996E},136199955.769226,103705.707885349
26921,16059,VALENCIA,NON-UNIQUE,PA,42,42019,BUTLER,160,40.70351862,-79.93065089, ,3286,0,3088,198,188,1.9.3,11,{FF7EA897-E227-4495-8FE0-C56D26137DCE},23529385.8566284,44592.9747773761
45049,15228,PITTSBURGH,NON-UNIQUE,PA,42,42003,ALLEGHENY,152,40.37072859,-80.04510354, ,7700,1883,5785,32,444,1.9.3,10,{DE3066A3-92E4-417C-9F1F-346636AD05DC},84451014.6545715,72771.9404988641
45053,15243,PITTSBURGH,NON-UNIQUE,PA,42,42003,ALLEGHENY,152,40.37220649,-80.07521033, ,5679,754,4841,84,232,1.9.3,5,{C0BF2DC2-6B9A-45AC-B700-3E7C0508718E},79720454.7923889,62965.1073073404
45054,15231,PITTSBURGH,UNIQUE,PA,42,42003,ALLEGHENY,151,40.4070605,-80.17620598, ,,,,,,1.9.3,15,{48935354-E8B0-4E13-A8D8-A9BB99E1C627},64427699.3823242,35955.0244823516
45456,15236,PITTSBURGH,NON-UNIQUE,PA,42,42003,ALLEGHENY,152,40.38282012,-79.94502258, ,13685,2318,11099,268,1035,1.9.3,15,{9DC6C8C5-BF0C-4197-B55F-FC78F21F75EB},305369436.313263,210653.825733045
51869,15136,MCKEES ROCKS,NON-UNIQUE,PA,42,42003,ALLEGHENY,151,40.43935,-80.10208, ,9910,678,9056,176,759,1.9.3,11,{54A214A1-E5B3-4F76-9F55-658FB5FF37B3},306237581.305237,135609.035044336
54725,16046,MARS,NON-UNIQUE,PA,42,42003,ALLEGHENY,150,40.62165889,-80.06218593, ,5311,0,4517,794,479,1.9.3,11,{C5D9E227-8869-45D5-802E-58533391FB19},99350880.7023315,105864.306051754
56087,15202,PITTSBURGH,NON-UNIQUE,PA,42,42003,ALLEGHENY,152,40.4677639,-80.05312347, ,14090,2933,10866,291,961,1.9.3,8,{4A4A695C-25F2-446D-8028-01E4E02338A7},146563076.656494,96262.3680894234
58474,15056,LEETSDALE,NON-UNIQUE,PA,42,42003,ALLEGHENY,150,40.56545938,-80.21316383, ,569,65,471,33,127,1.9.3,5,{D6088F5E-503C-454A-BA51-6581B63067C2},31172367.9767456,29003.0643807158
59289,15045,GLASSPORT,NON-UNIQUE,PA,42,42003,ALLEGHENY,150,40.32654473,-79.886074, ,2155,56,2013,86,140,1.9.3,11,{BD86C225-B5BC-4247-9176-92B850850AC6},48239058.8143005,35487.561486889
60129,15090,WEXFORD,NON-UNIQUE,PA,42,42003,ALLEGHENY,150,40.62165889,-80.06218593, ,7978,685,7121,172,1154,1.9.3,11,{74772505-7194-4A6A-A583-140CD6D0C836},616404859.019287,230820.752581622
60947,15084,TARENTUM,NON-UNIQUE,PA,42,42003,ALLEGHENY,150,40.61473817,-79.80443624, ,4538,346,4134,58,472,1.9.3,6,{C0D9CA0E-168D-40E2-94DE-CE213A464BD3},802305545.54126,256528.189076576
61732,15147,VERONA,NON-UNIQUE,PA,42,42003,ALLEGHENY,151,40.4968904,-79.82986158, ,8048,830,7137,81,386,1.9.3,5,{C8E9D743-01FF-40E1-91A9-E253F403936E},282793003.369751,136677.328949486
61733,15235,PITTSBURGH,NON-UNIQUE,PA,42,42003,ALLEGHENY,152,40.43174313,-79.86487858, ,16490,1458,14740,292,1183,1.9.3,10,{708511D6-B6D1-46F4-BDFF-867C2ADFD9D7},394213625.086365,195091.609464883
63755,15238,PITTSBURGH,NON-UNIQUE,PA,42,42003,ALLEGHENY,152,40.53502586,-79.88243085, ,5995,584,5205,206,967,1.9.3,6,{32CA1374-D3CD-4AF1-940E-E68DFEEA299E},491899574.779541,175262.290856846
65789,15220,PITTSBURGH,NON-UNIQUE,PA,42,42003,ALLEGHENY,152,40.37220649,-80.07521033, ,8442,2526,5865,51,797,1.9.3,5,{A22AF33B-BCD9-4AAB-BE12-C1C27FD451C1},138599637.561249,154660.670282826
65793,15217,PITTSBURGH,NON-UNIQUE,PA,42,42003,ALLEGHENY,152,40.43135754,-79.92139908, ,12495,3165,9119,211,798,1.9.3,15,{FDF46A10-9ECB-443E-AB23-31661B1326A6},110682059.333038,69723.4163443412
65795,15233,PITTSBURGH,NON-UNIQUE,PA,42,42003,ALLEGHENY,152,40.45789522,-80.02901278, ,1690,396,998,296,535,1.9.3,5,{67DC5634-B394-4CF6-92D7-E2C76D3CC29B},46791331.8181763,38878.0275521343
65798,15143,SEWICKLEY,NON-UNIQUE,PA,42,42003,ALLEGHENY,,,,,,,,,,,,{E970DB91-0062-40EF-A631-87BF4885FFEA},939812937.753601,161680.464593699
65799,15210,PITTSBURGH,NON-UNIQUE,PA,42,42003,ALLEGHENY,,,,,,,,,,,,{EE7DBADA-FAA2-471A-A5C3-6DDD8D3D89CE},130604837.846344,95831.782812099
65800,15289,PITTSBURGH,UNIQUE,PA,42,42003,ALLEGHENY,152,40.4430908,-79.95520627, ,11666,6940,4487,239,947,1.9.3,6,{85468FD2-7F65-433B-A15B-7CB4D96B4014},397.601379394531,80.2501473363038
65801,15219,PITTSBURGH,NON-UNIQUE,PA,42,42003,ALLEGHENY,,,,,,,,,,,,{779D22AE-4952-4CDC-9E02-6F2B1448582A},76610691.0297546,79972.8608606056
65802,15044,GIIBSONIA,NON-UNIQUE,PA,42,42003,ALLEGHENY,,,,,,,,,,,,{D92CD13C-648F-40A4-B132-BFF18ED5815E},1102377737.73328,253447.374374862
65803,15126,IMPERIAL,NON-UNIQUE,PA,42,42003,ALLEGHENY,151,40.4070605,-80.17620598, ,3084,294,2663,127,235,1.9.3,15,{4998C6D3-5E2D-4AFF-8C47-221296CBF8BE},1.62750244140625,1012.46209487509
65805,15071,OAKDALE,NON-UNIQUE,PA,42,42003,ALLEGHENY,150,40.4070605,-80.17620598, ,4325,0,4245,80,319,1.9.3,12,{5354B652-21DA-44BF-B7DE-02984BD30832},451068990.64209,220766.804064604
65806,15135,MCKEESPORT,NON-UNIQUE,PA,42,42003,ALLEGHENY,151,40.30216627,-79.81469332, ,2192,280,1879,33,93,1.9.3,5,{908E41AE-74A0-47D8-ACC9-BEB79B2DDB08},103769.157989502,1412.4689513709
65807,15126,IMPERIAL,NON-UNIQUE,PA,42,42003,ALLEGHENY,151,40.4070605,-80.17620598, ,3084,294,2663,127,235,1.9.3,15,{9FF8C7A6-3EB0-4AC2-A23D-ECB5D383BD17},141.081848144531,249.774507094214
65808,15208,PITTSBURGH,NON-UNIQUE,PA,,,,,,,,,,,,,,,{1E4F943C-EA5B-4618-9BD8-91301E733A66},41418169.6239014,42740.0206614233
65809,15222,PITTSBURGH,NON-UNIQUE,PA,,,,,,,,,,,,,,,{E282E9C5-F0FA-4309-8EB9-A262A84EF732},32440064.0864563,41453.4558664802
65810,15108,CORAOPOLIS,NON-UNIQUE,,,,,,,,,,,,,,,,{30C6DF96-2E72-4A5E-8D90-F2B220B36A94},1005397744.88623,280293.711055183
65811,15014,BRACKENRIDGE,NON-UNIQUE,PA,42,42003,ALLEGHENY,150,40.60796437,-79.74083155, ,1493,59,1396,38,76,1.9.3,5,{EE6A150D-8ABF-4970-A1F3-C42222239369},0.80474853515625,7.62778952901111
65812,15003,,,,,,,,,,,,,,,,,,{26DC86AD-2A31-44F9-B9FD-2AA2F1223388},1670209.49365234,7144.26569509905
65813,15140,PITCAIRN,NON-UNIQUE,,,,,,,,,,,,,,,,{2D1C07C0-DBD1-4669-8EA9-B8D5274F5E1F},15889820.8494263,31178.421426678
65814,15024,CHESWICK,NON-UNIQUE,,,,,,,,,,,,,,,,{4B4F5D48-E076-4CAF-A08D-2EFD507FFEB5},481986640.929321,209962.795802087
65815,15206,PITTSBURGH,NON-UNIQUE,,,,,,,,,,,,,,,,{54E05A51-0AA5-4929-AA61-3EA8777C138A},139036254.984192,79093.4489221626
65816,15037,ELIZABETH,NON-UNIQUE,,,,,,,,,,,,,,,,{9AA90FE0-E9D7-41DF-8A40-2D80A3C9682D},737051366.360962,219517.94116992
65817,15212,PITTSBURGH,NON-UNIQUE,,,,,,,,,,,,,,,,{B1F6B1DA-2960-44B9-A010-36442886D96A},174695495.03656,143149.588852881
65818,15031,CUDDY,NON-UNIQUE,,,,,,,,,,,,,,,,{C27E7FCB-A9FD-4048-A3DC-DACCFAD3E233},26467561.1529541,53107.0358135038
65819,15101,ALLISON PARK,NON-UNIQUE,,,,,,,,,,,,,,,,{D32A2691-6F39-4658-B928-5C21DE015DC7},563607744.674133,208924.983776493
65820,15201,PITTSBURGH,NON-UNIQUE,,,,,,,,,,,,,,,,{DC3F0712-5F19-40C2-9DEF-5F77746BF43F},79551425.75354,58577.6114629239
65821,15106,CARNEGIE,NON-UNIQUE,,,,,,,,,,,,,,,,{E662DE05-3A97-44D2-B8E1-E8EC1C3A6F00},275817398.389099,127095.452264883
65822,15057,MCDONALD,NON-UNIQUE,,,,,,,,,,,,,,,,{FF617B78-FED0-4E6D-B65E-35E474B5C2C4},524353751.626129,252281.980520234
